satname,norad_id,inclination_deg,eccentricity,mean_motion_rev_per_day,perigee_km,apogee_km,l1,l2
STARLINK-1008,44714,53.1572,0.0001504,15.31036492,471.68822363084837,473.74896099301714,1 44714U 19074B   26041.94205644  .00001608  00000+0  64812-4 0  9997,2 44714  53.1572 303.1657 0001504  94.7794 265.3379 15.31036492344774
STARLINK-1012,44718,53.16,0.0001728,15.30195875,474.0431245875634,476.41164731934987,1 44718U 19074F   26041.90780180 -.00001590  00000+0 -41568-4 0  9995,2 44718  53.1600 303.2149 0001728  63.4113 296.7065 15.30195875344762
STARLINK-1017,44723,53.0486,0.0003385,15.21832316,497.98551919223155,502.64223043448055,1 44723U 19074L   26041.89771380  .00024986  00000+0  10963-2 0  9996,2 44723  53.0486 294.8267 0003385 111.4878 248.6479 15.21832316344884
STARLINK-1019,44724,53.0489,0.0010002,15.73420184,342.4018795056272,355.85910539752695,1 44724U 19074M   26042.58335648  .00207184  00000+0  14273-2 0  9998,2 44724  53.0489 267.2591 0010002 109.6867 289.2435 15.73420184  6008
STARLINK-1020,44725,53.0552,0.0003502,15.06812222,543.5236301912955,548.3732596369136,1 44725U 19074N   26042.41084060  .00050846  00000+0  33699-2 0  9994,2 44725  53.0552 324.5804 0003502 162.0383 198.0731 15.06812222344507
STARLINK-1031,44736,53.0432,0.0005388,15.79523227,328.17523046317547,335.40584837965616,1 44736U 19074Z   26042.58335648  .00212265  00000+0  11188-2 0  9999,2 44736  53.0432 252.0583 0005388 142.7367 128.8107 15.79523227  6020
STARLINK-1036,44741,53.0557,0.0006435,15.5037704,411.25259948412076,419.99617038653287,1 44741U 19074AE  26041.90524076  .00087827  00000+0  15104-2 0  9991,2 44741  53.0557 317.6418 0006435 117.2580 242.9084 15.50377040344562
STARLINK-1039,44744,53.0483,0.0006934,15.19351319,503.0251569535985,512.5745741987794,1 44744U 19074AH  26042.25541181  .00008884  00000+0  42943-3 0  9997,2 44744  53.0483 336.3749 0006934  98.3979 261.7802 15.19351319344331
STARLINK-1042,44747,53.0435,0.0003396,15.48381108,419.1522944405715,423.7705816997095,1 44747U 19074AL  26041.68501723  .00022669  00000+0  42800-3 0  9993,2 44747  53.0435 224.2111 0003396 105.4693 254.6689 15.48381108345887
STARLINK-1043,44748,53.0541,0.0002756,15.51875229,409.38003562616177,413.1223463970473,1 44748U 19074AM  26042.20363681  .00035542  00000+0  58821-3 0  9996,2 44748  53.0541 322.1074 0002756  65.5954 294.5343 15.51875229344534
STARLINK-1046,44751,53.0555,0.0007676,15.41742439,435.73227595168737,446.2009638289437,1 44751U 19074AQ  26042.24002229  .00020911  00000+0  49507-3 0  9997,2 44751  53.0555 336.3330 0007676  92.1497 268.0387 15.41742439344336
STARLINK-1047,44752,53.07,0.0004734,15.3194401,466.77079659007086,473.25462473612697,1 44752U 19074AR  26042.01410030  .00009285  00000+0  30822-3 0  9997,2 44752  53.0700 270.5594 0004734 120.0306 240.1164 15.31944010345256
STARLINK-1048,44753,53.0547,0.0005456,15.50023948,412.9488424619076,420.3633206725135,1 44753U 19074AS  26042.10502573  .00028680  00000+0  50865-3 0  9991,2 44753  53.0547 296.6270 0005456 107.2729 252.8877 15.50023948344871
STARLINK-1053,44758,53.031,0.0001185,15.80777325,327.4465166015352,329.0359282402478,1 44758U 19074AX  26042.45867834  .00174397  00000+0  87308-3 0  9997,2 44758  53.0310 216.2316 0001185 259.4704 100.6183 15.80777325346040
STARLINK-1060,44765,53.0293,0.0006744,16.21333756,211.4860353774502,220.3801170962788,1 44765U 19074BE  26042.80628367  .01772152  11849-4  80091-3 0  9994,2 44765  53.0293 250.9718 0006744 269.2213 201.6228 16.21333756345569
STARLINK-1063,44768,53.1597,0.0001398,15.30170755,474.34428028173716,476.26050193549054,1 44768U 19074BH  26041.33335647  .00054926  00000+0  18546-2 0  9998,2 44768  53.1597 346.4653 0001398  86.3746 346.9947 15.30170755  5794
STARLINK-1067,44771,53.0552,0.0001551,15.52109745,409.5143507460707,411.620206813348,1 44771U 19074BL  26042.58335648  .00103499  00000+0  16698-2 0  9997,2 44771  53.0552 330.2989 0001551  99.5327 205.9603 15.52109745  5791
STARLINK-1068,44772,53.0526,0.0005972,15.576051,390.5458087732941,398.6351544773479,1 44772U 19074BM  26042.23472081  .00111051  00000+0  14624-2 0  9993,2 44772  53.0526 308.8281 0005972 115.6054 244.5575 15.57605100344713
STARLINK-1112,44925,53.0395,0.000297,15.89344261,302.135595396182,306.1048561883026,1 44925U 20001M   26042.58335648  .00275692  00000+0  90257-3 0  9999,2 44925  53.0395  15.6507 0002970  73.7959 121.9968 15.89344261  6031
STARLINK-1114,44927,53.0519,0.0007426,15.45875049,423.75328931605145,433.86296421832594,1 44927U 20001P   26042.59371958  .00062700  00000+0  12676-2 0  9998,2 44927  53.0519  94.1838 0007426  18.3690 341.7583 15.45875049336056
STARLINK-1123,44930,53.054,0.0002382,15.06381117,545.619800406027,548.9190640303368,1 44930U 20001S   26041.45479961 -.00004948  00000+0 -31362-3 0  9995,2 44930  53.0540 108.8899 0002382 146.4631 213.6509 15.06381117335743
STARLINK-1144,44933,53.0266,0.0002741,16.22018774,212.26946233807848,215.88331371739514,1 44933U 20001V   26042.91582965  .02040361  11866-4  87653-3 0  9999,2 44933  53.0266 341.9053 0002741 162.3505 197.7630 16.22018774338946
STARLINK-1094,44941,53.1603,0.0001522,15.30190155,474.20138031338684,476.2875496313245,1 44941U 20001AD  26042.10036324 -.00000060  00000+0  10108-4 0  9998,2 44941  53.1603  83.0681 0001522  87.1944 272.9231 15.30190155336166
STARLINK-1122,44949,53.1574,0.000132,15.29358702,476.8232108507582,478.6331592596125,1 44949U 20001AM  26042.12646589  .00002415  00000+0  95976-4 0  9999,2 44949  53.1574  82.9900 0001320  92.9268 267.1883 15.29358702336163
STARLINK-1080,44961,53.0539,0.0007902,15.43347169,430.85420273468935,441.62364244274886,1 44961U 20001AZ  26042.41654745  .00021337  00000+0  47860-3 0  9990,2 44961  53.0539  53.3012 0007902  23.6402 336.4965 15.43347169336618
STARLINK-1090,44968,53.0581,0.0001532,15.06400522,546.148994929943,548.2709212378995,1 44968U 20001BG  26042.55320425 -.00000077  00000+0  13758-4 0  9996,2 44968  53.0581  63.9458 0001532 115.8739 244.2409 15.06400522336478
STARLINK-1132,45044,53.1589,0.0005645,15.40109029,441.93513618383713,449.6393466523987,1 45044U 20006A   26042.58335648  .00004849  00000+0  12912-3 0  9993,2 45044  53.1589  17.4004 0005645  90.8915 172.0159 15.40109029  5841
STARLINK-1131,45047,53.1565,0.0001103,15.29352324,476.9910421103614,478.5034501750597,1 45047U 20006D   26042.40690937  .00005822  00000+0  21396-3 0  9990,2 45047  53.1565  43.0351 0001103  98.6868 261.4257 15.29352324332521
STARLINK-1134,45048,53.0348,0.0009196,15.40840183,437.3550657350306,449.901656587278,1 45048U 20006E   26042.58335648  .00101305  00000+0  24070-2 0  9999,2 45048  53.0348   2.1784 0009196  89.8154 311.6629 15.40840183  5881
STARLINK-1156,45054,53.154,0.0001749,15.29380573,476.4637436986768,478.86190247679315,1 45054U 20006L   26042.36473889  .00026245  00000+0  91790-3 0  9995,2 45054  53.1540  43.2146 0001749  81.7367 278.3832 15.29380573332511
STARLINK-1159,45057,53.048,0.0005725,15.73660552,344.5944711415905,352.2964080349193,1 45057U 20006P   26042.58335648  .00226437  00000+0  15427-2 0  9999,2 45057  53.0480   5.3916 0005725  52.1330 211.3895 15.73660552  5969
STARLINK-1166,45060,53.0543,0.0006049,15.42279583,435.25930838696695,443.5071443568313,1 45060U 20006S   26042.61485282  .00091013  00000+0  20667-2 0  9999,2 45060  53.0543  36.6109 0006049  51.9459 308.2091 15.42279583332630
STARLINK-1169,45061,53.1559,0.0001585,15.29361774,476.63235104449905,478.8056573978365,1 45061U 20006T   26042.58335648 -.00001118  00000+0 -26415-4 0  9994,2 45061  53.1559  42.2348 0001585  77.3486 208.7873 15.29361774  5839
STARLINK-1171,45062,53.0486,0.0003097,15.52263114,408.01778311117687,412.2224295628421,1 45062U 20006U   26041.91667824  .00097759  00000+0  15699-2 0  9999,2 45062  53.0486  18.9342 0003097 308.6229  77.0833 15.52263114  5958
STARLINK-1133,45064,53.1603,0.0001065,15.30218637,474.4295471923715,475.8892993305262,1 45064U 20006W   26042.34357377  .00004434  00000+0  16166-3 0  9997,2 45064  53.1603  20.1757 0001065  94.3562 265.7560 15.30218637332849
STARLINK-1167,45071,53.1591,0.0001371,15.29349553,476.81558464075897,478.6954703718011,1 45071U 20006AD  26042.55314417 -.00001089  00000+0 -25421-4 0  9996,2 45071  53.1591  19.0996 0001371  78.2443 281.8711 15.29349553332874
STARLINK-1168,45072,53.1625,0.0001576,15.2934343,476.6933351425532,478.8543182351259,1 45072U 20006AE  26041.19059938  .00001431  00000+0  61942-4 0  9997,2 45072  53.1625  25.4747 0001576  90.9637 269.1544 15.29343430332669
STARLINK-1172,45074,53.16,0.0001894,15.30193976,473.93502776788046,476.53108434511523,1 45074U 20006AG  26042.45104857  .00002725  00000+0  10412-3 0  9992,2 45074  53.1600  19.6999 0001894  78.6539 281.4675 15.30193976332858
STARLINK-1153,45080,53.1632,0.0001509,15.29367427,476.6675638911456,478.73665613454614,1 45080U 20006AN  26041.36124717  .00001032  00000+0  48080-4 0  9998,2 45080  53.1632  24.5445 0001509  84.5321 275.5852 15.29367427332694
STARLINK-1151,45081,53.0526,0.0012888,15.54436573,395.05038808413883,412.53148553405845,1 45081U 20006AP  26042.58335648  .00060496  00000+0  90211-3 0  9992,2 45081  53.0526   6.7225 0012888  58.0256 179.9953 15.54436573  5917
STARLINK-1185,45087,53.1117,0.0001978,15.2002838,504.3932938463595,507.11656149294595,1 45087U 20006AV  26042.58335648  .00062539  00000+0  28554-2 0  9998,2 45087  53.1117   3.2529 0001978  83.6865 120.6729 15.20028380  5838
STARLINK-1183,45088,53.1049,0.0001135,15.18205493,510.4821370625905,512.0460311086781,1 45088U 20006AW  26042.58335648  .00966108  00000+0  42981-1 0  9993,2 45088  53.1049   3.4465 0001135  80.0674 257.4095 15.18205493  5731
STARLINK-1152,45096,53.0431,0.0007296,15.35023976,455.85955590681897,465.83900468702905,1 45096U 20006BE  26041.21583200  .00049284  00000+0  14305-2 0  9997,2 45096  53.0431 335.7085 0007296  97.7885 262.3945 15.35023976333361
